STARLINK-31996          
1 60100U 24117K   26068.32344912  .00000690  00000+0  35447-4 0  9993
2 60100  53.1613  38.5903 0001267  87.5677 272.5469 15.30178795 96839
TEVEL2-3                
1 63218U 25052J   26068.64540225  .00020365  00000+0  69446-3 0  9991
2 63218  97.3994 324.7775 0004761 105.7353 254.4413 15.30377031 54855
